SL-16 R/B               
1 22803U 93059B   24278.77703506  .00000665  00000+0  35364-3 0  9999
2 22803  70.9925  29.5209 0019453 282.5476  77.3472 14.17081407605736
ARIANE 40 R/B           
1 22830U 93061H   24279.17253224  .00001756  00000+0  66618-3 0  9992
2 22830  98.5605 345.4566 0011152  28.8613 331.3186 14.32309263619825
COSMOS 2278             
1 23087U 94023A   24279.18120759  .00000528  00000+0  30176-3 0  9999
2 23087  71.0547 183.9538 0006334 107.1394 253.0422 14.14171708571469
SL-16 R/B               
1 23343U 94074B   24279.18867278  .00003033  00000+0  42290-3 0  9998
2 23343  97.7758 318.4890 0008063 110.7633 289.9677 14.78411256610522
ARIANE 40+ R/B          
1 23561U 95021B   24279.19787343  .00002110  00000+0  69656-3 0  9998
2 23561  98.5167 344.9493 0005804 257.3532 164.1907 14.39092441544586
SL-16 R/B               
1 23705U 95058B   24279.14686109  .00000455  00000+0  25744-3 0  9991
2 23705  71.0224 193.0420 0013295 203.0314 157.0214 14.15382603494490
ORBVIEW 2 (SEASTAR)     
1 24883U 97037A   24278.99168591  .00002329  00000+0  83731-3 0  9992
2 24883  98.7921  60.6868 0002779 137.6688 222.4711 14.34787386434046
SL-16 R/B               
1 25400U 98043G   24278.80639208  .00000645  00000+0  28990-3 0  9999
2 25400  98.7533 219.6486 0011004  86.3582 273.8855 14.25826651364755
SL-16 R/B               
1 25407U 98045B   24278.91661578  .00000207  00000+0  12885-3 0  9995
2 25407  71.0118 196.6509 0005141 103.4968 256.6728 14.16051266353375
CZ-4B R/B               
1 25732U 99025C   24279.12020331  .00000692  00000+0  35638-3 0  9994
2 25732  98.7398 322.6301 0037828  41.8407 335.5027 14.18047580314522
OKEAN-O                 
1 25860U 99039A   24279.17995292  .00004067  00000+0  55852-3 0  9993
2 25860  98.0229 331.3244 0001061 115.5493 244.5827 14.78917372357500
SL-16 R/B               
1 25861U 99039B   24279.14057657  .00003790  00000+0  50100-3 0  9998
2 25861  98.0759 325.8818 0016008 140.3041 219.9346 14.80496627359935
HELIOS 1B               
1 25977U 99064A   24278.62478988  .00005455  00000+0  64642-3 0  9996
2 25977  98.2247 153.8747 0001206  36.8448 323.2848 14.84979408339156
SL-16 R/B               
1 26070U 00006B   24278.86820293  .00000569  00000+0  31394-3 0  9994
2 26070  71.0002 112.8505 0018677 256.1598 103.7447 14.15684916274840
CZ-4B R/B               
1 27432U 02024C   24279.16142257  .00000490  00000+0  27617-3 0  9996
2 27432  98.9638 321.9577 0051058  60.2411 331.8571 14.14379626155732
H-2A R/B                
1 27601U 02056E   24278.92430100  .00002265  00000+0  81908-3 0  9994
2 27601  98.2443 250.6332 0069605 274.4451 143.3672 14.33069369139487
CZ-4B R/B               
1 28059U 03049C   24278.88535973  .00003438  00000+0  81268-3 0  9996
2 28059  98.6251 244.4385 0049483  22.7664 337.5711 14.54080723110881
CZ-2C R/B               
1 28222U 04012C   24279.04024275  .00042605  00000+0  14105-2 0  9990
2 28222  97.7997 297.1824 0032168  29.1227 331.1798 15.30682025123899
CZ-4B R/B               
1 28415U 04035C   24279.17381610  .00022273  00000+0  10671-2 0  9995
2 28415  97.4137 310.5113 0040492   3.6094 356.5424 15.18200935100631
