OBJECT_NAME,OBJECT_ID,EPOCH,MEAN_MOTION,ECCENTRICITY,INCLINATION,RA_OF_ASC_NODE,ARG_OF_PERICENTER,MEAN_ANOMALY,EPHEMERIS_TYPE,CLASSIFICATION_TYPE,NORAD_CAT_ID,ELEMENT_SET_NO,REV_AT_EPOCH,BSTAR,MEAN_MOTION_DOT,MEAN_MOTION_DDOT
SL-16 R/B,1993-059B,2024-10-04T18:38:55.829184,14.17081407,0.0019453,70.9925,29.5209,282.5476,77.3472,0,U,22803,999,60573,3.54E-04,6.65E-06,0
ARIANE 40 R/B,1993-061H,2024-10-05T04:08:26.785536,14.32309263,0.0011152,98.5605,345.4566,28.8613,331.3186,0,U,22830,999,61982,6.66E-04,1.76E-05,0
COSMOS 2278,1994-023A,2024-10-05T04:20:56.335776,14.14171708,0.0006334,71.0547,183.9538,107.1394,253.0422,0,U,23087,999,57146,3.02E-04,5.28E-06,0
SL-16 R/B,1994-074B,2024-10-05T04:31:41.328192,14.78411256,0.0008063,97.7758,318.489,110.7633,289.9677,0,U,23343,999,61052,4.23E-04,3.03E-05,0
ARIANE 40+ R/B,1995-021B,2024-10-05T04:44:56.264352,14.39092441,0.0005804,98.5167,344.9493,257.3532,164.1907,0,U,23561,999,54458,6.97E-04,2.11E-05,0
SL-16 R/B,1995-058B,2024-10-05T03:31:28.798176,14.15382603,0.0013295,71.0224,193.042,203.0314,157.0214,0,U,23705,999,49449,2.57E-04,4.55E-06,0
ORBVIEW 2 (SEASTAR),1997-037A,2024-10-04T23:48:01.662624,14.34787386,0.0002779,98.7921,60.6868,137.6688,222.4711,0,U,24883,999,43404,8.37E-04,2.33E-05,0
SL-16 R/B,1998-043G,2024-10-04T19:21:12.275712,14.25826651,0.0011004,98.7533,219.6486,86.3582,273.8855,0,U,25400,999,36475,2.90E-04,6.45E-06,0
SL-16 R/B,1998-045B,2024-10-04T21:59:55.603392,14.16051266,0.0005141,71.0118,196.6509,103.4968,256.6728,0,U,25407,999,35337,1.29E-04,2.07E-06,0
CZ-4B R/B,1999-025C,2024-10-05T02:53:05.565984,14.1804758,0.0037828,98.7398,322.6301,41.8407,335.5027,0,U,25732,999,31452,3.56E-04,6.92E-06,0
OKEAN-O,1999-039A,2024-10-05T04:19:07.932288,14.78917372,0.0001061,98.0229,331.3244,115.5493,244.5827,0,U,25860,999,35750,5.59E-04,4.07E-05,0
SL-16 R/B,1999-039B,2024-10-05T03:22:25.815648,14.80496627,0.0016008,98.0759,325.8818,140.3041,219.9346,0,U,25861,999,35993,5.01E-04,3.79E-05,0
HELIOS 1B,1999-064A,2024-10-04T14:59:41.845632,14.84979408,0.0001206,98.2247,153.8747,36.8448,323.2848,0,U,25977,999,33915,6.46E-04,5.46E-05,0
SL-16 R/B,2000-006B,2024-10-04T20:50:12.733152,14.15684916,0.0018677,71.0002,112.8505,256.1598,103.7447,0,U,26070,999,27484,3.14E-04,5.69E-06,0
CZ-4B R/B,2002-024C,2024-10-05T03:52:26.910048,14.14379626,0.0051058,98.9638,321.9577,60.2411,331.8571,0,U,27432,999,15573,2.76E-04,4.90E-06,0
H-2A R/B,2002-056E,2024-10-04T22:10:59.606400,14.33069369,0.0069605,98.2443,250.6332,274.4451,143.3672,0,U,27601,999,13948,8.19E-04,2.27E-05,0
CZ-4B R/B,2003-049C,2024-10-04T21:14:55.080672,14.54080723,0.0049483,98.6251,244.4385,22.7664,337.5711,0,U,28059,999,11088,8.13E-04,3.44E-05,0
CZ-2C R/B,2004-012C,2024-10-05T00:57:56.973600,15.30682025,0.0032168,97.7997,297.1824,29.1227,331.1798,0,U,28222,999,12389,1.41E-03,4.26E-04,0
CZ-4B R/B,2004-035C,2024-10-05T04:10:17.711040,15.18200935,0.0040492,97.4137,310.5113,3.6094,356.5424,0,U,28415,999,10063,1.07E-03,2.23E-04,0
